CCSDS_OMM_VERS = 2.0
CREATION_DATE  = 
ORIGINATOR     = 

OBJECT_NAME    = ALOS (DAICHI)
OBJECT_ID      = 2006-002A
CENTER_NAME    = EARTH
REF_FRAME      = TEME
TIME_SYSTEM    = UTC
MEAN_ELEMENT_THEORY = SGP/SGP4

EPOCH          = 2025-12-17T17:37:14.152512
MEAN_MOTION    = 14.69501788
ECCENTRICITY   = .00013612
INCLINATION    = 98.1098
RA_OF_ASC_NODE = 303.1864
ARG_OF_PERICENTER = 113.5739
MEAN_ANOMALY   = 246.5610

EPHEMERIS_TYPE = 0
CLASSIFICATION_TYPE = U
NORAD_CAT_ID   = 28931
ELEMENT_SET_NO = 999
REV_AT_EPOCH   = 6144
BSTAR          = .19545051E-3
MEAN_MOTION_DOT = .111E-4
MEAN_MOTION_DDOT = 0

CCSDS_OMM_VERS = 2.0
CREATION_DATE  = 
ORIGINATOR     = 

OBJECT_NAME    = H-2A R/B
OBJECT_ID      = 2006-002B
CENTER_NAME    = EARTH
REF_FRAME      = TEME
TIME_SYSTEM    = UTC
MEAN_ELEMENT_THEORY = SGP/SGP4

EPOCH          = 2025-12-25T22:21:26.167104
MEAN_MOTION    = 15.14831007
ECCENTRICITY   = .0054865
INCLINATION    = 98.2329
RA_OF_ASC_NODE = 135.7603
ARG_OF_PERICENTER = 131.8593
MEAN_ANOMALY   = 228.7338

EPHEMERIS_TYPE = 0
CLASSIFICATION_TYPE = U
NORAD_CAT_ID   = 28932
ELEMENT_SET_NO = 999
REV_AT_EPOCH   = 8326
BSTAR          = .57048E-3
MEAN_MOTION_DOT = .10937E-3
MEAN_MOTION_DDOT = 0

CCSDS_OMM_VERS = 2.0
CREATION_DATE  = 
ORIGINATOR     = 

OBJECT_NAME    = RESURS-DK 1
OBJECT_ID      = 2006-021A
CENTER_NAME    = EARTH
REF_FRAME      = TEME
TIME_SYSTEM    = UTC
MEAN_ELEMENT_THEORY = SGP/SGP4

EPOCH          = 2025-12-26T14:08:19.212864
MEAN_MOTION    = 15.12237827
ECCENTRICITY   = .0006959
INCLINATION    = 69.9336
RA_OF_ASC_NODE = 66.0447
ARG_OF_PERICENTER = 246.6774
MEAN_ANOMALY   = 113.3659

EPHEMERIS_TYPE = 0
CLASSIFICATION_TYPE = U
NORAD_CAT_ID   = 29228
ELEMENT_SET_NO = 999
REV_AT_EPOCH   = 7647
BSTAR          = .17973319E-3
MEAN_MOTION_DOT = .3008E-4
MEAN_MOTION_DDOT = 0

CCSDS_OMM_VERS = 2.0
CREATION_DATE  = 
ORIGINATOR     = 

OBJECT_NAME    = CZ-4B R/B
OBJECT_ID      = 2006-046C
CENTER_NAME    = EARTH
REF_FRAME      = TEME
TIME_SYSTEM    = UTC
MEAN_ELEMENT_THEORY = SGP/SGP4

EPOCH          = 2025-12-26T13:33:14.545152
MEAN_MOTION    = 15.16008309
ECCENTRICITY   = .00344866
INCLINATION    = 97.5713
RA_OF_ASC_NODE = 40.6651
ARG_OF_PERICENTER = 158.4700
MEAN_ANOMALY   = 201.7992

EPHEMERIS_TYPE = 0
CLASSIFICATION_TYPE = U
NORAD_CAT_ID   = 29507
ELEMENT_SET_NO = 999
REV_AT_EPOCH   = 4896
BSTAR          = .25654531E-3
MEAN_MOTION_DOT = .4933E-4
MEAN_MOTION_DDOT = 0

CCSDS_OMM_VERS = 2.0
CREATION_DATE  = 
ORIGINATOR     = 

OBJECT_NAME    = CZ-2C R/B
OBJECT_ID      = 2007-010B
CENTER_NAME    = EARTH
REF_FRAME      = TEME
TIME_SYSTEM    = UTC
MEAN_ELEMENT_THEORY = SGP/SGP4

EPOCH          = 2025-12-26T14:20:54.365280
MEAN_MOTION    = 14.20215374
ECCENTRICITY   = .00596676
INCLINATION    = 98.3975
RA_OF_ASC_NODE = 112.5514
ARG_OF_PERICENTER = 145.9223
MEAN_ANOMALY   = 214.5809

EPHEMERIS_TYPE = 0
CLASSIFICATION_TYPE = U
NORAD_CAT_ID   = 31114
ELEMENT_SET_NO = 999
REV_AT_EPOCH   = 96934
BSTAR          = .94650857E-4
MEAN_MOTION_DOT = .165E-5
MEAN_MOTION_DDOT = 0

CCSDS_OMM_VERS = 2.0
CREATION_DATE  = 
ORIGINATOR     = 

OBJECT_NAME    = COSMO-SKYMED 1
OBJECT_ID      = 2007-023A
CENTER_NAME    = EARTH
REF_FRAME      = TEME
TIME_SYSTEM    = UTC
MEAN_ELEMENT_THEORY = SGP/SGP4

EPOCH          = 2025-12-26T15:14:52.022112
MEAN_MOTION    = 14.95866804
ECCENTRICITY   = .00011328
INCLINATION    = 97.8838
RA_OF_ASC_NODE = 186.1264
ARG_OF_PERICENTER = 77.5679
MEAN_ANOMALY   = 282.5668

EPHEMERIS_TYPE = 0
CLASSIFICATION_TYPE = U
NORAD_CAT_ID   = 31598
ELEMENT_SET_NO = 999
REV_AT_EPOCH   = 398
BSTAR          = .30501383E-3
MEAN_MOTION_DOT = .335E-4
MEAN_MOTION_DDOT = 0

CCSDS_OMM_VERS = 2.0
CREATION_DATE  = 
ORIGINATOR     = 

OBJECT_NAME    = COSMOS 2428
OBJECT_ID      = 2007-029A
CENTER_NAME    = EARTH
REF_FRAME      = TEME
TIME_SYSTEM    = UTC
MEAN_ELEMENT_THEORY = SGP/SGP4

EPOCH          = 2025-12-26T09:39:21.192768
MEAN_MOTION    = 14.12895587
ECCENTRICITY   = .00044477
INCLINATION    = 70.9369
RA_OF_ASC_NODE = 357.1933
ARG_OF_PERICENTER = 4.4812
MEAN_ANOMALY   = 355.6349

EPHEMERIS_TYPE = 0
CLASSIFICATION_TYPE = U
NORAD_CAT_ID   = 31792
ELEMENT_SET_NO = 999
REV_AT_EPOCH   = 95374
BSTAR          = .15171865E-3
MEAN_MOTION_DOT = .235E-5
MEAN_MOTION_DDOT = 0

CCSDS_OMM_VERS = 2.0
CREATION_DATE  = 
ORIGINATOR     = 

OBJECT_NAME    = SL-16 R/B
OBJECT_ID      = 2007-029B
CENTER_NAME    = EARTH
REF_FRAME      = TEME
TIME_SYSTEM    = UTC
MEAN_ELEMENT_THEORY = SGP/SGP4

EPOCH          = 2025-12-26T07:49:58.579680
MEAN_MOTION    = 14.14819540
ECCENTRICITY   = .0001887
INCLINATION    = 70.9766
RA_OF_ASC_NODE = 326.5969
ARG_OF_PERICENTER = 266.6195
MEAN_ANOMALY   = 199.8033

EPHEMERIS_TYPE = 0
CLASSIFICATION_TYPE = U
NORAD_CAT_ID   = 31793
ELEMENT_SET_NO = 999
REV_AT_EPOCH   = 95499
BSTAR          = .17878523E-3
MEAN_MOTION_DOT = .297E-5
MEAN_MOTION_DDOT = 0

CCSDS_OMM_VERS = 2.0
CREATION_DATE  = 
ORIGINATOR     = 

OBJECT_NAME    = KORONAS-FOTON
OBJECT_ID      = 2009-003A
CENTER_NAME    = EARTH
REF_FRAME      = TEME
TIME_SYSTEM    = UTC
MEAN_ELEMENT_THEORY = SGP/SGP4

EPOCH          = 2025-12-26T10:52:01.144128
MEAN_MOTION    = 15.41453753
ECCENTRICITY   = .00132311
INCLINATION    = 82.4311
RA_OF_ASC_NODE = 351.8926
ARG_OF_PERICENTER = 65.8665
MEAN_ANOMALY   = 294.3963

EPHEMERIS_TYPE = 0
CLASSIFICATION_TYPE = U
NORAD_CAT_ID   = 33504
ELEMENT_SET_NO = 999
REV_AT_EPOCH   = 93445
BSTAR          = .20852465E-3
MEAN_MOTION_DOT = .879E-4
MEAN_MOTION_DDOT = 0

CCSDS_OMM_VERS = 2.0
CREATION_DATE  = 
ORIGINATOR     = 

OBJECT_NAME    = CZ-2C R/B
OBJECT_ID      = 2011-030B
CENTER_NAME    = EARTH
REF_FRAME      = TEME
TIME_SYSTEM    = UTC
MEAN_ELEMENT_THEORY = SGP/SGP4

EPOCH          = 2025-12-26T10:54:30.900384
MEAN_MOTION    = 14.80942595
ECCENTRICITY   = .00516056
INCLINATION    = 97.8433
RA_OF_ASC_NODE = 314.2592
ARG_OF_PERICENTER = 227.7392
MEAN_ANOMALY   = 244.6250

EPHEMERIS_TYPE = 0
CLASSIFICATION_TYPE = U
NORAD_CAT_ID   = 37731
ELEMENT_SET_NO = 999
REV_AT_EPOCH   = 77925
BSTAR          = .18615116E-3
MEAN_MOTION_DOT = .1418E-4
MEAN_MOTION_DDOT = 0

CCSDS_OMM_VERS = 2.0
CREATION_DATE  = 
ORIGINATOR     = 

OBJECT_NAME    = H-2A R/B
OBJECT_ID      = 2012-025E
CENTER_NAME    = EARTH
REF_FRAME      = TEME
TIME_SYSTEM    = UTC
MEAN_ELEMENT_THEORY = SGP/SGP4

EPOCH          = 2025-12-26T10:22:15.658752
MEAN_MOTION    = 14.94530550
ECCENTRICITY   = .00446631
INCLINATION    = 98.4616
RA_OF_ASC_NODE = 316.7199
ARG_OF_PERICENTER = 190.3261
MEAN_ANOMALY   = 169.7044

EPHEMERIS_TYPE = 0
CLASSIFICATION_TYPE = U
NORAD_CAT_ID   = 38341
ELEMENT_SET_NO = 999
REV_AT_EPOCH   = 73727
BSTAR          = .34443815E-3
MEAN_MOTION_DOT = .3726E-4
MEAN_MOTION_DDOT = 0

CCSDS_OMM_VERS = 2.0
CREATION_DATE  = 
ORIGINATOR     = 

OBJECT_NAME    = SHIJIAN-16 (SJ-16)
OBJECT_ID      = 2013-057A
CENTER_NAME    = EARTH
REF_FRAME      = TEME
TIME_SYSTEM    = UTC
MEAN_ELEMENT_THEORY = SGP/SGP4

EPOCH          = 2025-12-26T14:47:57.055776
MEAN_MOTION    = 14.92030968
ECCENTRICITY   = .00180348
INCLINATION    = 74.9743
RA_OF_ASC_NODE = 323.3960
ARG_OF_PERICENTER = 287.6987
MEAN_ANOMALY   = 72.2232

EPHEMERIS_TYPE = 0
CLASSIFICATION_TYPE = U
NORAD_CAT_ID   = 39358
ELEMENT_SET_NO = 999
REV_AT_EPOCH   = 66060
BSTAR          = .4199035E-3
MEAN_MOTION_DOT = .4246E-4
MEAN_MOTION_DDOT = 0

