ALOS (DAICHI)           
1 28931U 06002A   25351.73419158  .00001110  00000+0  19545-3 0  9994
2 28931  98.1098 303.1864 0001361 113.5739 246.5610 14.69501788 61443
H-2A R/B                
1 28932U 06002B   25359.93155286  .00010937  00000+0  57048-3 0  9991
2 28932  98.2329 135.7603 0054865 131.8593 228.7338 15.14831007 83264
RESURS-DK 1             
1 29228U 06021A   25360.58911126  .00003008  00000+0  17973-3 0  9991
2 29228  69.9336  66.0447 0006959 246.6774 113.3659 15.12237827 76473
CZ-4B R/B               
1 29507U 06046C   25360.56475168  .00004933  00000+0  25655-3 0  9991
2 29507  97.5713  40.6651 0034486 158.4700 201.7992 15.16008309 48969
CZ-2C R/B               
1 31114U 07010B   25360.59785145  .00000165  00000+0  94651-4 0  9998
2 31114  98.3975 112.5514 0059667 145.9223 214.5809 14.20215374969340
COSMO-SKYMED 1          
1 31598U 07023A   25360.63532433  .00003350  00000+0  30501-3 0  9995
2 31598  97.8838 186.1264 0001132  77.5679 282.5668 14.95866804  3985
COSMOS 2428             
1 31792U 07029A   25360.40232862  .00000235  00000+0  15172-3 0  9991
2 31792  70.9369 357.1933 0004447   4.4812 355.6349 14.12895587953740
SL-16 R/B               
1 31793U 07029B   25360.32637245  .00000297  00000+0  17879-3 0  9991
2 31793  70.9766 326.5969 0001887 266.6195 199.8033 14.14819540954995
KORONAS-FOTON           
1 33504U 09003A   25360.45279102  .00008790  00000+0  20852-3 0  9996
2 33504  82.4311 351.8926 0013231  65.8665 294.3963 15.41453753934455
CZ-2C R/B               
1 37731U 11030B   25360.45452431  .00001418  00000+0  18615-3 0  9997
2 37731  97.8433 314.2592 0051605 227.7392 244.6250 14.80942595779252
H-2A R/B                
1 38341U 12025E   25360.43212568  .00003726  00000+0  34444-3 0  9995
2 38341  98.4616 316.7199 0044663 190.3261 169.7044 14.94530550737279
SHIJIAN-16 (SJ-16)      
1 39358U 13057A   25360.61663259  .00004246  00000+0  41990-3 0  9999
2 39358  74.9743 323.3960 0018034 287.6987  72.2232 14.92030968660601
